NORAD_CAT_ID,OBJECT_NAME,OBJECT_TYPE,EPOCH,MEAN_MOTION,ECCENTRICITY,INCLINATION,RA_OF_ASC_NODE,ARG_OF_PERICENTER,MEAN_ANOMALY,BSTAR,MEAN_MOTION_DOT,MEAN_MOTION_DDOT,TLE_LINE0,TLE_LINE1,TLE_LINE2,SEMIMAJOR_AXIS,PERIOD,APOGEE,PERIGEE,DECAYED
55675.0,STARLINK-5232,PAYLOAD,2024-08-06 07:22:50,14.98316203,0.0003091,70.001,187.6163,271.3431,88.7374,-0.00012213,-1.549e-05,0.0,0 STARLINK-5232,1 55675U 23021AZ  24219.30753162 -.00001549  00000-0 -12213-3 0  9994,2 55675  70.0010 187.6163 0003091 271.3431  88.7374 14.98316203 82356,6950.236,96.108,574.249,569.952,0.0
55675.0,STARLINK-5232,PAYLOAD,2024-08-07 04:12:34,14.98332288,0.000309,70.0,185.4269,266.7475,93.333,2.2764e-05,1.79e-06,0.0,0 STARLINK-5232,1 55675U 23021AZ  24220.17539937  .00000179  00000-0  22764-4 0  9992,2 55675  70.0000 185.4269 0003090 266.7475  93.3330 14.98332288 82189,6950.186,96.107,574.198,569.903,0.0
55675.0,STARLINK-5232,PAYLOAD,2024-08-07 05:48:42,14.98335554,0.0003126,70.0,185.2587,267.2561,92.8241,5.3303e-05,5.43e-06,0.0,0 STARLINK-5232,1 55675U 23021AZ  24220.24215632  .00000543  00000-0  53303-4 0  9991,2 55675  70.0000 185.2587 0003126 267.2561  92.8241 14.98335554 82490,6950.176,96.107,574.213,569.868,0.0
55675.0,STARLINK-5232,PAYLOAD,2024-08-08 07:26:51,14.98332872,0.0002962,70.0006,182.5663,258.7177,101.3649,0.00024228,2.799e-05,0.0,0 STARLINK-5232,1 55675U 23021AZ  24221.31031347  .00002799  00000-0  24228-3 0  9997,2 55675  70.0006 182.5663 0002962 258.7177 101.3649 14.98332872 82652,6950.184,96.107,574.108,569.99,0.0
55675.0,STARLINK-5232,PAYLOAD,2024-08-08 21:52:03,14.98337335,0.0002731,70.0016,181.0497,269.0911,90.9935,7.2935e-05,7.78e-06,0.0,0 STARLINK-5232,1 55675U 23021AZ  24221.91115481  .00000778  00000-0  72935-4 0  9999,2 55675  70.0016 181.0497 0002731 269.0911  90.9935 14.98337335 82444,6950.17,96.107,573.933,570.137,0.0
55675.0,STARLINK-5232,PAYLOAD,2024-08-09 05:52:43,14.98339068,0.0002949,70.0004,180.21,260.2188,99.8638,3.112e-05,2.78e-06,0.0,0 STARLINK-5232,1 55675U 23021AZ  24222.24495236  .00000278  00000-0  31120-4 0  9991,2 55675  70.0004 180.2100 0002949 260.2188  99.8638 14.98339068 82794,6950.165,96.106,574.079,569.98,0.0
55675.0,STARLINK-5232,PAYLOAD,2024-08-09 21:54:04,14.98330519,0.0002293,70.003,178.5279,247.5498,112.5418,5.2301e-07,-8.7e-07,0.0,0 STARLINK-5232,1 55675U 23021AZ  24222.91255780 -.00000087  00000-0  52301-6 0  9998,2 55675  70.0030 178.5279 0002293 247.5498 112.5418 14.98330519 82896,6950.191,96.107,573.65,570.463,0.0
55675.0,STARLINK-5232,PAYLOAD,2024-08-10 04:18:37,14.98332995,0.0002562,70.0015,177.8547,248.5847,111.5039,-4.4978e-05,-6.3e-06,0.0,0 STARLINK-5232,1 55675U 23021AZ  24223.17959645 -.00000630  00000-0 -44978-4 0  9992,2 55675  70.0015 177.8547 0002562 248.5847 111.5039 14.98332995 82637,6950.184,96.107,573.829,570.268,0.0
55675.0,STARLINK-5232,PAYLOAD,2024-08-10 21:56:05,14.98333301,0.0002623,70.0008,176.0022,261.3272,98.759,2.3021e-05,1.82e-06,0.0,0 STARLINK-5232,1 55675U 23021AZ  24223.91395318  .00000182  00000-0  23021-4 0  9991,2 55675  70.0008 176.0022 0002623 261.3272  98.7590 14.98333301 83047,6950.183,96.107,573.871,570.225,0.0
55675.0,STARLINK-5232,PAYLOAD,2024-08-11 07:32:53,14.9834071,0.000262,70.0014,174.9907,270.3658,89.7201,0.00016697,1.9e-05,0.0,0 STARLINK-5232,1 55675U 23021AZ  24224.31450497  .00001900  00000-0  16697-3 0  9995,2 55675  70.0014 174.9907 0002620 270.3658  89.7201 14.98340710 82802,6950.16,96.106,573.846,570.204,0.0
55675.0,STARLINK-5232,PAYLOAD,2024-08-11 20:21:58,14.98328351,0.0002526,70.0014,173.6461,263.012,97.0752,2.9936e-05,2.64e-06,0.0,0 STARLINK-5232,1 55675U 23021AZ  24224.84859460  .00000264  00000-0  29936-4 0  9999,2 55675  70.0014 173.6461 0002526 263.0120  97.0752 14.98328351 82889,6950.198,96.107,573.819,570.307,0.0
55675.0,STARLINK-5232,PAYLOAD,2024-08-11 21:58:06,14.9832908,0.0002406,70.0017,173.479,259.1661,100.9227,3.4436e-05,3.18e-06,0.0,0 STARLINK-5232,1 55675U 23021AZ  24224.91535415  .00000318  00000-0  34436-4 0  9999,2 55675  70.0017 173.4790 0002406 259.1661 100.9227 14.98329080 83194,6950.196,96.107,573.733,570.389,0.0
55675.0,STARLINK-5232,PAYLOAD,2024-08-12 04:22:38,14.98336131,0.0002495,70.0007,172.8031,258.3572,101.7307,9.4776e-05,1.038e-05,0.0,0 STARLINK-5232,1 55675U 23021AZ  24225.18238699  .00001038  00000-0  94776-4 0  9996,2 55675  70.0007 172.8031 0002495 258.3572 101.7307 14.98336131 82938,6950.174,96.107,573.773,570.305,0.0
55675.0,STARLINK-5232,PAYLOAD,2024-08-12 05:58:45,14.98341792,0.0002371,70.0015,172.6345,259.4907,100.5985,0.00019133,2.191e-05,0.0,0 STARLINK-5232,1 55675U 23021AZ  24225.24914101  .00002191  00000-0  19133-3 0  9996,2 55675  70.0015 172.6345 0002371 259.4907 100.5985 14.98341792 82949,6950.156,96.106,573.669,570.374,0.0
55675.0,STARLINK-5232,PAYLOAD,2024-08-12 13:59:26,14.98342113,0.0002555,70.0013,171.7953,267.1688,92.9179,9.5187e-05,1.043e-05,0.0,0 STARLINK-5232,1 55675U 23021AZ  24225.58294132  .00001043  00000-0  95187-4 0  9997,2 55675  70.0013 171.7953 0002555 267.1688  92.9179 14.98342113 83294,6950.155,96.106,573.796,570.245,0.0
55675.0,STARLINK-5232,PAYLOAD,2024-08-12 22:00:06,14.98339916,0.0002393,70.0017,170.9523,269.506,90.5824,9.4978e-05,1.041e-05,0.0,0 STARLINK-5232,1 55675U 23021AZ  24225.91674198  .00001041  00000-0  94978-4 0  9993,2 55675  70.0017 170.9523 0002393 269.5060  90.5824 14.98339916 83346,6950.162,96.106,573.69,570.364,0.0
55675.0,STARLINK-5232,PAYLOAD,2024-08-13 06:00:46,14.98342998,0.0002469,70.0014,170.1103,265.1758,94.9119,7.3453e-05,7.84e-06,0.0,0 STARLINK-5232,1 55675U 23021AZ  24226.25053663  .00000784  00000-0  73453-4 0  9997,2 55675  70.0014 170.1103 0002469 265.1758  94.9119 14.98342998 83090,6950.153,96.106,573.734,570.302,0.0
55675.0,STARLINK-5232,PAYLOAD,2024-08-13 20:26:02,14.98292742,0.0002383,70.0016,168.5962,278.939,81.1499,-0.00025486,-3.129e-05,0.0,0 STARLINK-5232,1 55675U 23021AZ  24226.85142145 -.00003129  00000-0 -25486-3 0  9997,2 55675  70.0016 168.5962 0002383 278.9390  81.1499 14.98292742 83185,6950.308,96.109,573.829,570.517,0.0
55675.0,STARLINK-5232,PAYLOAD,2024-08-13 22:02:12,14.98276292,0.000288,70.0015,168.4279,274.3446,85.7383,-0.00043357,-5.255e-05,0.0,0 STARLINK-5232,1 55675U 23021AZ  24226.91819688 -.00005255  00000-0 -43357-3 0  9996,2 55675  70.0015 168.4279 0002880 274.3446  85.7383 14.98276292 83496,6950.359,96.11,574.226,570.222,0.0
55675.0,STARLINK-5232,PAYLOAD,2024-08-14 04:26:44,14.98283203,0.0002691,70.0005,167.7535,270.4036,89.6815,-0.00047791,-5.784e-05,0.0,0 STARLINK-5232,1 55675U 23021AZ  24227.18524114 -.00005784  00000-0 -47791-3 0  9996,2 55675  70.0005 167.7535 0002691 270.4036  89.6815 14.98283203 83239,6950.338,96.11,574.073,570.332,0.0
55675.0,STARLINK-5232,PAYLOAD,2024-08-14 14:03:29,14.98331788,0.0002686,70.002,166.745,276.9628,83.1225,4.582e-05,4.54e-06,0.0,0 STARLINK-5232,1 55675U 23021AZ  24227.58576339  .00000454  00000-0  45820-4 0  9995,2 55675  70.0020 166.7450 0002686 276.9628  83.1225 14.98331788 83598,6950.187,96.107,573.919,570.186,0.0
55675.0,STARLINK-5232,PAYLOAD,2024-08-14 22:04:09,14.98334929,0.0002868,70.0015,165.9029,271.8099,88.2731,0.00012,1.339e-05,0.0,0 STARLINK-5232,1 55675U 23021AZ  24227.91955943  .00001339  00000-0  12000-3 0  9990,2 55675  70.0015 165.9029 0002868 271.8099  88.2731 14.98334929 83647,6950.178,96.107,574.036,570.049,0.0
55675.0,STARLINK-5232,PAYLOAD,2024-08-15 04:28:41,14.98343345,0.000279,70.0006,165.2288,267.8031,92.2808,0.00023578,2.722e-05,0.0,0 STARLINK-5232,1 55675U 23021AZ  24228.18659110  .00002722  00000-0  23578-3 0  9996,2 55675  70.0006 165.2288 0002790 267.8031  92.2808 14.98343345 83385,6950.152,96.106,573.956,570.078,0.0
55675.0,STARLINK-5232,PAYLOAD,2024-08-15 06:04:49,14.98347462,0.00029,70.0002,165.0596,272.4871,87.5956,0.00028126,3.266e-05,0.0,0 STARLINK-5232,1 55675U 23021AZ  24228.25334734  .00003266  00000-0  28126-3 0  9994,2 55675  70.0002 165.0596 0002900 272.4871  87.5956 14.98347462 83697,6950.139,96.106,574.019,569.988,0.0
55675.0,STARLINK-5232,PAYLOAD,2024-08-15 22:06:11,14.98313339,0.0003062,69.9999,163.377,280.5027,79.5787,0.00059431,7.002e-05,0.0,0 STARLINK-5232,1 55675U 23021AZ  24228.92096417  .00007002  00000-0  59431-3 0  9996,2 55675  69.9999 163.3770 0003062 280.5027  79.5787 14.98313339 83797,6950.244,96.108,574.238,569.981,0.0
55675.0,STARLINK-5232,PAYLOAD,2024-08-16 04:30:42,14.98331512,0.000287,70.0005,162.7049,266.4538,93.6293,0.00047637,5.596e-05,0.0,0 STARLINK-5232,1 55675U 23021AZ  24229.18799628  .00005596  00000-0  47637-3 0  9990,2 55675  70.0005 162.7049 0002870 266.4538  93.6293 14.98331512 83530,6950.188,96.107,574.048,570.059,0.0
55675.0,STARLINK-5232,PAYLOAD,2024-08-16 06:06:50,14.9833326,0.0002942,70.0003,162.536,270.3527,89.7294,0.00052199,6.141e-05,0.0,0 STARLINK-5232,1 55675U 23021AZ  24229.25475431  .00006141  00000-0  52199-3 0  9997,2 55675  70.0003 162.5360 0002942 270.3527  89.7294 14.98333260 83847,6950.183,96.107,574.093,570.003,0.0
55675.0,STARLINK-5232,PAYLOAD,2024-08-16 18:55:55,14.98346457,0.0002727,70.001,161.1929,275.904,84.1808,0.00014102,1.591e-05,0.0,0 STARLINK-5232,1 55675U 23021AZ  24229.78883338  .00001591  00000-0  14102-3 0  9990,2 55675  70.0010 161.1929 0002727 275.9040  84.1808 14.98346457 83924,6950.142,96.106,573.902,570.112,0.0
55675.0,STARLINK-5232,PAYLOAD,2024-08-17 04:32:43,14.98351463,0.0002613,70.0014,160.1818,263.9892,96.0969,-5.8236e-06,-1.62e-06,0.0,0 STARLINK-5232,1 55675U 23021AZ  24230.18938810 -.00000162  00000-0 -58236-5 0  9995,2 55675  70.0014 160.1818 0002613 263.9892  96.0969 14.98351463 83686,6950.127,96.106,573.808,570.175,0.0
55675.0,STARLINK-5232,PAYLOAD,2024-08-17 22:10:12,14.98334945,0.0002323,70.0017,158.3292,238.906,121.1871,-9.1659e-05,-1.186e-05,0.0,0 STARLINK-5232,1 55675U 23021AZ  24230.92375503 -.00001186  00000-0 -91659-4 0  9993,2 55675  70.0017 158.3292 0002323 238.9060 121.1871 14.98334945 84095,6950.178,96.107,573.657,570.428,0.0
